{
"type": "FeatureCollection",
"name": "aparcaments",
"crs": { "type": "name", "properties": { "name": "urn:ogc:def:crs:OGC:1.3:CRS84" } },
"features": [
{ "type": "Feature", "properties": { "Nom": "Camp Gran", "Tipologia": "Descobert", "Tipus": "Arrendat en contra", "Qualificac": "UC1", "Qualific_1": null, "Classifica": "SUCS-1", "Font": "COMU", "Població": "Sant Julia de Loria", "Emplaçame": "Avda. Verge de Canòlich, 70-72", "Codi.quart": "SJ_04", "Places": 80.0, "Superfíci": 3244.675 }, "geometry": { "type": "Polygon", "coordinates": [ [ [ 1.492965570701238, 42.467497788404017 ], [ 1.493742756654959, 42.467232213338299 ], [ 1.493814611456031, 42.46720842680034 ], [ 1.493594387462721, 42.4670764988496 ], [ 1.493394689896511, 42.467006357157572 ], [ 1.493080588064814, 42.466960847749107 ], [ 1.492951743530248, 42.466917115300724 ], [ 1.492767513454531, 42.466977715522603 ], [ 1.492717147431954, 42.467015970395622 ], [ 1.492714313578926, 42.467065306701002 ], [ 1.492965570701238, 42.467497788404017 ] ] ] } },
{ "type": "Feature", "properties": { "Nom": "Feixes del Rabató", "Tipologia": "Descobert", "Tipus": "Arrendat en contra", "Qualificac": "UC3", "Qualific_1": null, "Classifica": "SUCS-1", "Font": "COMU", "Població": "Sant Julia de Loria", "Emplaçame": "Ctra. de la Rabassa (CS130)", "Codi.quart": "SJ_05", "Places": 90.0, "Superfíci": 4896.808 }, "geometry": { "type": "Polygon", "coordinates": [ [ [ 1.493558857207528, 42.465582041243692 ], [ 1.493955799065285, 42.46599746272144 ], [ 1.494046497668556, 42.465983475612632 ], [ 1.494193518929011, 42.46592548581291 ], [ 1.49458181133317, 42.465703324183387 ], [ 1.494661106590979, 42.465603438403249 ], [ 1.494680127715824, 42.46552170026429 ], [ 1.494661949544875, 42.465432434186354 ], [ 1.494595928217033, 42.465345855753895 ], [ 1.49435854567351, 42.465182028318118 ], [ 1.494302207946661, 42.465211704328546 ], [ 1.494265029613157, 42.465190427454289 ], [ 1.493982104434158, 42.46538967881493 ], [ 1.493799873734663, 42.465396572481673 ], [ 1.493558857207528, 42.465582041243692 ] ] ] } },
{ "type": "Feature", "properties": { "Nom": "El Trillà", "Tipologia": "Descobert", "Tipus": "Arrendat en contra", "Qualificac": "UA1", "Qualific_1": null, "Classifica": "SUCS-1", "Font": "COMU", "Població": "Sant Julia de Loria", "Emplaçame": "Ctra. de Certers (CS120)", "Codi.quart": "SJ_03", "Places": 80.0, "Superfíci": 3415.26 }, "geometry": { "type": "Polygon", "coordinates": [ [ [ 1.494812181086028, 42.468412219327632 ], [ 1.494770932946906, 42.468333982819978 ], [ 1.494397077947543, 42.467982893993756 ], [ 1.494054027685983, 42.468303519758408 ], [ 1.493851698716078, 42.468530645461023 ], [ 1.494091372445967, 42.468772859190942 ], [ 1.494812181086028, 42.468412219327632 ] ] ] } },
{ "type": "Feature", "properties": { "Nom": "Plaça de la Germandat", "Tipologia": "Cobert", "Tipus": "Propietat comunal", "Qualificac": "E", "Qualific_1": null, "Classifica": "SUCS-1", "Font": "COMU", "Població": "Sant Julia de Loria", "Emplaçame": "Avda. Verge de Canòlich - Avda. Francesc Cairat", "Codi.quart": "SJ_06", "Places": 446.0, "Superfíci": 1350.932 }, "geometry": { "type": "Polygon", "coordinates": [ [ [ 1.490434534541516, 42.465014996051515 ], [ 1.490389526763047, 42.464925463139309 ], [ 1.490014750975399, 42.465074685266075 ], [ 1.490185752715849, 42.465241529223874 ], [ 1.490466420006336, 42.465431654634031 ], [ 1.490674430164983, 42.46537945302066 ], [ 1.490627815655871, 42.465277754443264 ], [ 1.490539286114333, 42.465299690462473 ], [ 1.490412982688976, 42.465020333184192 ], [ 1.490434534541516, 42.465014996051515 ] ] ] } },
{ "type": "Feature", "properties": { "Nom": "Camp de Perot", "Tipologia": "Cobert", "Tipus": "Propietat comunal", "Qualificac": "UC1", "Qualific_1": "UC2", "Classifica": "SUCS-1", "Font": "COMU", "Població": "Sant Julia de Loria", "Emplaçame": "Plaça Major, 3 - Carrer Camp de Perot", "Codi.quart": "SJ_08", "Places": 281.0, "Superfíci": 385.05 }, "geometry": { "type": "Polygon", "coordinates": [ [ [ 1.491520506846392, 42.462963264112119 ], [ 1.491609621061002, 42.462788786528897 ], [ 1.491355417907461, 42.462827733275581 ], [ 1.491356401991097, 42.46286671362477 ], [ 1.491160924393765, 42.462851285255475 ], [ 1.491156188576954, 42.462921306236794 ], [ 1.491291121273784, 42.462944217330481 ], [ 1.491335937100035, 42.462923081143124 ], [ 1.4914226820869, 42.46292696551474 ], [ 1.491520506846392, 42.462963264112119 ] ] ] } },
{ "type": "Feature", "properties": { "Nom": "La Valireta", "Tipologia": "Descobert", "Tipus": "Arrendat en contra", "Qualificac": "UC1", "Qualific_1": null, "Classifica": "SUCS-1", "Font": "COMU", "Població": "Sant Julia de Loria", "Emplaçame": "Avda. Francesc Cairat, 8-10", "Codi.quart": "SJ_07", "Places": 32.0, "Superfíci": 777.608 }, "geometry": { "type": "Polygon", "coordinates": [ [ [ 1.490641955637612, 42.462901597652468 ], [ 1.490316307429268, 42.462831699643672 ], [ 1.49024557272313, 42.463093350426242 ], [ 1.490520014060418, 42.463154940925634 ], [ 1.490641955637612, 42.462901597652468 ] ] ] } },
{ "type": "Feature", "properties": { "Nom": "Solà de Cal Arena", "Tipologia": "Descobert", "Tipus": "Arrendat en contra", "Qualificac": "UC1", "Qualific_1": null, "Classifica": "SUCS-1", "Font": "COMU", "Població": "Sant Julia de Loria", "Emplaçame": "Ctra. de Fontaneda (CS140)", "Codi.quart": "SJ_09", "Places": 88.0, "Superfíci": 2530.196 }, "geometry": { "type": "Polygon", "coordinates": [ [ [ 1.488970651791214, 42.461462305734834 ], [ 1.488848428430225, 42.461283402879523 ], [ 1.488695862831692, 42.461162391774465 ], [ 1.488510577649533, 42.46104436600038 ], [ 1.488012462653113, 42.460847215847998 ], [ 1.488060154590544, 42.460953152673007 ], [ 1.488438808871964, 42.461498172146641 ], [ 1.488495173459235, 42.46152519804977 ], [ 1.488599164057918, 42.461527665805477 ], [ 1.488970651791214, 42.461462305734834 ] ] ] } },
{ "type": "Feature", "properties": { "Nom": "Prat Nou", "Tipologia": "Descobert", "Tipus": "Arrendat en contra", "Qualificac": "UC1", "Qualific_1": null, "Classifica": "SUCS-1", "Font": "COMU", "Població": "Sant Julia de Loria", "Emplaçame": "Avda. Rocafort", "Codi.quart": "SJ_02", "Places": 100.0, "Superfíci": 2362.457 }, "geometry": { "type": "Polygon", "coordinates": [ [ [ 1.493200475629179, 42.46822218366691 ], [ 1.492742588373733, 42.468320783529123 ], [ 1.492750016535803, 42.468896217725451 ], [ 1.493188875052624, 42.468776220133527 ], [ 1.493200475629179, 42.46822218366691 ] ] ] } },
{ "type": "Feature", "properties": { "Nom": "Prat del Senzill", "Tipologia": "Descobert", "Tipus": "Propietat comunal", "Qualificac": "UC1", "Qualific_1": null, "Classifica": "SUCS-1", "Font": "COMU", "Població": "Sant Julia de Loria", "Emplaçame": "Prat del Senzill", "Codi.quart": "SJ_10", "Places": 17.0, "Superfíci": 760.765 }, "geometry": { "type": "Polygon", "coordinates": [ [ [ 1.488874535806487, 42.460777151196865 ], [ 1.489057513349114, 42.460830666862179 ], [ 1.489346328783967, 42.460992610215222 ], [ 1.489414466730013, 42.460940156338019 ], [ 1.489358169923141, 42.460852189307658 ], [ 1.489040727045383, 42.460593217101909 ], [ 1.488874535806487, 42.460777151196865 ] ] ] } },
{ "type": "Feature", "properties": { "Nom": "Camp de les Arades", "Tipologia": "Descobert", "Tipus": "Privat", "Qualificac": "UC1", "Qualific_1": null, "Classifica": "SUCS-1", "Font": "COMU", "Població": "Sant Julia de Loria", "Emplaçame": "Centre Comercial Les Aredes - Avda. Verge de Canòlich", "Codi.quart": "SJ_01", "Places": 40.0, "Superfíci": 2240.648 }, "geometry": { "type": "Polygon", "coordinates": [ [ [ 1.493578919515283, 42.472510886379887 ], [ 1.493523308701649, 42.472534783173316 ], [ 1.493809495518542, 42.47254182308356 ], [ 1.493847721129676, 42.472485411418532 ], [ 1.49385385106882, 42.472334982777795 ], [ 1.493688396677862, 42.472237898294665 ], [ 1.493555256736266, 42.472243318531262 ], [ 1.493578919515283, 42.472510886379887 ] ] ] } },
{ "type": "Feature", "properties": { "Nom": "Peralba", "Tipologia": "Descobert", "Tipus": "Arrendat en contra", "Qualificac": null, "Qualific_1": null, "Classifica": "SUCS-1", "Font": "COMU", "Població": "Sant Julia de Loria", "Emplaçame": "Avda. Verge Canòlich 11", "Codi.quart": "SJ_11", "Places": 21.0, "Superfíci": null }, "geometry": { "type": "Polygon", "coordinates": [ [ [ 1.493436610506356, 42.470518332009703 ], [ 1.493344767435101, 42.470574660208307 ], [ 1.493393223808223, 42.470648550878956 ], [ 1.493464645757028, 42.470667066279752 ], [ 1.493697152575477, 42.470601022292378 ], [ 1.493887795492887, 42.470573235395655 ], [ 1.494017487919867, 42.470523097460955 ], [ 1.494048943745075, 42.470479639791407 ], [ 1.493922577424638, 42.470439638565516 ], [ 1.493530904084879, 42.470591381925878 ], [ 1.493428548201307, 42.470582109114041 ], [ 1.49351612450156, 42.470552065813507 ], [ 1.493436610506356, 42.470518332009703 ] ] ] } }
]
}
