{
"type": "FeatureCollection",
"name": "bus_interparroquial",
"crs": { "type": "name", "properties": { "name": "urn:ogc:def:crs:OGC:1.3:CRS84" } },
"features": [
{ "type": "Feature", "properties": { "nom": "Pont de Fontaneda · Andorra la Vella", "nom_parada": "Pont de Fontaneda", "direccio": "Andorra la Vella", "marquesina": "si", "banc": "si", "info": "si", "accessible": "si", "tipus_bus": "Interparroquial", "coverage_role": "coverage", "us": "Parades bus interparroquial", "tipus_desti": "bus_interparroquial", "nearest_node": 202, "dist_node_m": 2.3821994585347728 }, "geometry": { "type": "Point", "coordinates": [ 1.490536887525985, 42.461945572981229 ] } },
{ "type": "Feature", "properties": { "nom": "Pont de Fontaneda · Espanya", "nom_parada": "Pont de Fontaneda", "direccio": "Espanya", "marquesina": "si", "banc": "si", "info": "si", "accessible": "regular", "tipus_bus": "Interparroquial", "coverage_role": "coverage", "us": "Parades bus interparroquial", "tipus_desti": "bus_interparroquial", "nearest_node": 279, "dist_node_m": 2.3828766382621125 }, "geometry": { "type": "Point", "coordinates": [ 1.489443516134238, 42.461662675805222 ] } },
{ "type": "Feature", "properties": { "nom": "La Valireta · Espanya", "nom_parada": "La Valireta", "direccio": "Espanya", "marquesina": "si", "banc": "si", "info": "si", "accessible": "no", "tipus_bus": "Interparroquial", "coverage_role": "coverage", "us": "Parades bus interparroquial", "tipus_desti": "bus_interparroquial", "nearest_node": 201, "dist_node_m": 2.3817995883598448 }, "geometry": { "type": "Point", "coordinates": [ 1.489317524495576, 42.46404994009513 ] } },
{ "type": "Feature", "properties": { "nom": "La Valireta · Andorra la Vella", "nom_parada": "La Valireta", "direccio": "Andorra la Vella", "marquesina": "si", "banc": "si", "info": "si", "accessible": "si", "tipus_bus": "Interparroquial", "coverage_role": "coverage", "us": "Parades bus interparroquial", "tipus_desti": "bus_interparroquial", "nearest_node": 274, "dist_node_m": 2.3814760976990774 }, "geometry": { "type": "Point", "coordinates": [ 1.489993684399419, 42.464023997012951 ] } },
{ "type": "Feature", "properties": { "nom": "Riu d'Auvinyà · Espanya", "nom_parada": "Riu d'Auvinyà", "direccio": "Espanya", "marquesina": "si", "banc": "si", "info": "si", "accessible": "no", "tipus_bus": "Interparroquial", "coverage_role": "coverage", "us": "Parades bus interparroquial", "tipus_desti": "bus_interparroquial", "nearest_node": 281, "dist_node_m": 2.3856530893593693 }, "geometry": { "type": "Point", "coordinates": [ 1.487408147872027, 42.457972085726986 ] } },
{ "type": "Feature", "properties": { "nom": "Riu d'Auvinyà · Andorra la Vella", "nom_parada": "Riu d'Auvinyà", "direccio": "Andorra la Vella", "marquesina": "si", "banc": "si", "info": "si", "accessible": "si", "tipus_bus": "Interparroquial", "coverage_role": "coverage", "us": "Parades bus interparroquial", "tipus_desti": "bus_interparroquial", "nearest_node": 282, "dist_node_m": 2.3855594473958619 }, "geometry": { "type": "Point", "coordinates": [ 1.487627188346534, 42.457940727460283 ] } },
{ "type": "Feature", "properties": { "nom": "Prat Gran · Espanya", "nom_parada": "Prat Gran", "direccio": "Espanya", "marquesina": "si", "banc": "si", "info": "si", "accessible": "si", "tipus_bus": "Comunal + interparroquial", "coverage_role": "coverage", "us": "Parades bus interparroquial", "tipus_desti": "bus_interparroquial", "nearest_node": 278, "dist_node_m": 2.378855279818803 }, "geometry": { "type": "Point", "coordinates": [ 1.492099075629561, 42.467332080352598 ] } },
{ "type": "Feature", "properties": { "nom": "Prat Gran · Andorra la Vella", "nom_parada": "Prat Gran", "direccio": "Andorra la Vella", "marquesina": "si", "banc": "si", "info": "si", "accessible": "si", "tipus_bus": "Comunal + interparroquial", "coverage_role": "coverage", "us": "Parades bus interparroquial", "tipus_desti": "bus_interparroquial", "nearest_node": 203, "dist_node_m": 2.3779235782023562 }, "geometry": { "type": "Point", "coordinates": [ 1.492759361887212, 42.468602284179738 ] } },
{ "type": "Feature", "properties": { "nom": "La Planella", "nom_parada": "La Planella", "direccio": "Espanya", "marquesina": "si", "banc": "si", "info": "si", "accessible": "si", "tipus_bus": "Interparroquial", "coverage_role": "coverage", "us": "Parades bus interparroquial", "tipus_desti": "bus_interparroquial", "nearest_node": 280, "dist_node_m": 2.3837240320749666 }, "geometry": { "type": "Point", "coordinates": [ 1.489190741144889, 42.460153415653053 ] } },
{ "type": "Feature", "properties": { "nom": "La Riberola", "nom_parada": "La Riberola", "direccio": "Espanya", "marquesina": "si", "banc": "si", "info": "si", "accessible": "si", "tipus_bus": "Interparroquial", "coverage_role": "coverage", "us": "Parades bus interparroquial", "tipus_desti": "bus_interparroquial", "nearest_node": 204, "dist_node_m": 2.387523332833096 }, "geometry": { "type": "Point", "coordinates": [ 1.486649326274593, 42.454860139099978 ] } },
{ "type": "Feature", "properties": { "nom": "Rotonda d'Aixovall", "nom_parada": "Rotonda d'Aixovall", "direccio": "Andorra la Vella + Espanya", "marquesina": "si", "banc": "si", "info": "si", "accessible": "si", "tipus_bus": "Interparroquial", "coverage_role": "coverage", "us": "Parades bus interparroquial", "tipus_desti": "bus_interparroquial", "nearest_node": 275, "dist_node_m": 2.3754819931042199 }, "geometry": { "type": "Point", "coordinates": [ 1.490098107666714, 42.476573385756062 ] } },
{ "type": "Feature", "properties": { "nom": "Les Arades", "nom_parada": "Les Arades", "direccio": "Andorra la Vella", "marquesina": "si", "banc": "si", "info": "si", "accessible": "si", "tipus_bus": "Interparroquial", "coverage_role": "coverage", "us": "Parades bus interparroquial", "tipus_desti": "bus_interparroquial", "nearest_node": 276, "dist_node_m": 2.3762286427168111 }, "geometry": { "type": "Point", "coordinates": [ 1.493458917954566, 42.471441040388633 ] } },
{ "type": "Feature", "properties": { "nom": "Av. de Rocafort", "nom_parada": "Av. de Rocafort", "direccio": "Espanya", "marquesina": "si", "banc": "si", "info": "si", "accessible": "si", "tipus_bus": "Interparroquial", "coverage_role": "coverage", "us": "Parades bus interparroquial", "tipus_desti": "bus_interparroquial", "nearest_node": 277, "dist_node_m": 2.376513025189178 }, "geometry": { "type": "Point", "coordinates": [ 1.493109603671952, 42.471207091997293 ] } }
]
}
