{
"type": "FeatureCollection",
"name": "bus_comunal",
"crs": { "type": "name", "properties": { "name": "urn:ogc:def:crs:OGC:1.3:CRS84" } },
"features": [
{ "type": "Feature", "properties": { "nom": "Certers · parada 1", "nom_parada": "Certers", "coverage_role": "display_only", "us": "Parades bus comunal", "tipus_desti": "bus_comunal" }, "geometry": { "type": "Point", "coordinates": [ 1.506488290424932, 42.474207745485408 ] } },
{ "type": "Feature", "properties": { "nom": "Urbanització Certers", "nom_parada": "Urbanització Certers", "coverage_role": "display_only", "us": "Parades bus comunal", "tipus_desti": "bus_comunal" }, "geometry": { "type": "Point", "coordinates": [ 1.506183198908877, 42.475830277640448 ] } },
{ "type": "Feature", "properties": { "nom": "Trillar", "nom_parada": "Trillar", "coverage_role": "display_only", "us": "Parades bus comunal", "tipus_desti": "bus_comunal" }, "geometry": { "type": "Point", "coordinates": [ 1.495994991307357, 42.469504251275715 ] } },
{ "type": "Feature", "properties": { "nom": "Trillar (B)", "nom_parada": "Trillar (B)", "coverage_role": "display_only", "us": "Parades bus comunal", "tipus_desti": "bus_comunal" }, "geometry": { "type": "Point", "coordinates": [ 1.494851298732889, 42.470362057210835 ] } },
{ "type": "Feature", "properties": { "nom": "Terra Bogada", "nom_parada": "Terra Bogada", "coverage_role": "display_only", "us": "Parades bus comunal", "tipus_desti": "bus_comunal" }, "geometry": { "type": "Point", "coordinates": [ 1.49700242891792, 42.467384500844503 ] } },
{ "type": "Feature", "properties": { "nom": "Les Caubelles (A)", "nom_parada": "Les Caubelles (A)", "coverage_role": "display_only", "us": "Parades bus comunal", "tipus_desti": "bus_comunal" }, "geometry": { "type": "Point", "coordinates": [ 1.498047136231109, 42.469903239328787 ] } },
{ "type": "Feature", "properties": { "nom": "Solà de St. Serni", "nom_parada": "Solà de St. Serni", "coverage_role": "display_only", "us": "Parades bus comunal", "tipus_desti": "bus_comunal" }, "geometry": { "type": "Point", "coordinates": [ 1.504205593389393, 42.472104751974882 ] } },
{ "type": "Feature", "properties": { "nom": "Certers · parada 8", "nom_parada": "Certers", "coverage_role": "display_only", "us": "Parades bus comunal", "tipus_desti": "bus_comunal" }, "geometry": { "type": "Point", "coordinates": [ 1.50649551323546, 42.474242703888514 ] } },
{ "type": "Feature", "properties": { "nom": "Urbanització de Certers", "nom_parada": "Urbanització de Certers", "coverage_role": "display_only", "us": "Parades bus comunal", "tipus_desti": "bus_comunal" }, "geometry": { "type": "Point", "coordinates": [ 1.506203133865907, 42.475819010056256 ] } },
{ "type": "Feature", "properties": { "nom": "Costa de Nagol (1)", "nom_parada": "Costa de Nagol (1)", "coverage_role": "display_only", "us": "Parades bus comunal", "tipus_desti": "bus_comunal" }, "geometry": { "type": "Point", "coordinates": [ 1.494737933364916, 42.465705919680161 ] } },
{ "type": "Feature", "properties": { "nom": "St. Julià de Lòria", "nom_parada": "St. Julià de Lòria", "coverage_role": "display_only", "us": "Parades bus comunal", "tipus_desti": "bus_comunal" }, "geometry": { "type": "Point", "coordinates": [ 1.492961988715455, 42.467432460306838 ] } },
{ "type": "Feature", "properties": { "nom": "Prat Gran Plaça Laurèdia", "nom_parada": "Prat Gran Plaça Laurèdia", "coverage_role": "display_only", "us": "Parades bus comunal", "tipus_desti": "bus_comunal" }, "geometry": { "type": "Point", "coordinates": [ 1.49275873882751, 42.467064963707621 ] } },
{ "type": "Feature", "properties": { "nom": "Naturland", "nom_parada": "Naturland", "coverage_role": "display_only", "us": "Parades bus comunal", "tipus_desti": "bus_comunal" }, "geometry": { "type": "Point", "coordinates": [ 1.500809796246351, 42.441470689055251 ] } },
{ "type": "Feature", "properties": { "nom": "Les Comes (A)", "nom_parada": "Les Comes (A)", "coverage_role": "display_only", "us": "Parades bus comunal", "tipus_desti": "bus_comunal" }, "geometry": { "type": "Point", "coordinates": [ 1.508114506212126, 42.462526164021483 ] } },
{ "type": "Feature", "properties": { "nom": "Les Comes (B)", "nom_parada": "Les Comes (B)", "coverage_role": "display_only", "us": "Parades bus comunal", "tipus_desti": "bus_comunal" }, "geometry": { "type": "Point", "coordinates": [ 1.507712480967404, 42.462515925687612 ] } },
{ "type": "Feature", "properties": { "nom": "Terra de la Creu (A)", "nom_parada": "Terra de la Creu (A)", "coverage_role": "display_only", "us": "Parades bus comunal", "tipus_desti": "bus_comunal" }, "geometry": { "type": "Point", "coordinates": [ 1.504453278007142, 42.46124022928236 ] } },
{ "type": "Feature", "properties": { "nom": "Terra de la Creu (B)", "nom_parada": "Terra de la Creu (B)", "coverage_role": "display_only", "us": "Parades bus comunal", "tipus_desti": "bus_comunal" }, "geometry": { "type": "Point", "coordinates": [ 1.50397617164709, 42.460989048823748 ] } },
{ "type": "Feature", "properties": { "nom": "Camí del Mas (B)", "nom_parada": "Camí del Mas (B)", "coverage_role": "display_only", "us": "Parades bus comunal", "tipus_desti": "bus_comunal" }, "geometry": { "type": "Point", "coordinates": [ 1.497599737290216, 42.460381574345263 ] } },
{ "type": "Feature", "properties": { "nom": "Caí del Mas (A)", "nom_parada": "Caí del Mas (A)", "coverage_role": "display_only", "us": "Parades bus comunal", "tipus_desti": "bus_comunal" }, "geometry": { "type": "Point", "coordinates": [ 1.497834536414467, 42.460404781235454 ] } },
{ "type": "Feature", "properties": { "nom": "Bassets de d'Alt (A)", "nom_parada": "Bassets de d'Alt (A)", "coverage_role": "display_only", "us": "Parades bus comunal", "tipus_desti": "bus_comunal" }, "geometry": { "type": "Point", "coordinates": [ 1.497093281039673, 42.460553578355075 ] } },
{ "type": "Feature", "properties": { "nom": "Bassets de d'Alt (B)", "nom_parada": "Bassets de d'Alt (B)", "coverage_role": "display_only", "us": "Parades bus comunal", "tipus_desti": "bus_comunal" }, "geometry": { "type": "Point", "coordinates": [ 1.496933051114039, 42.460526958686899 ] } },
{ "type": "Feature", "properties": { "nom": "Pl. d'Aixirivall (A)", "nom_parada": "Pl. d'Aixirivall (A)", "coverage_role": "display_only", "us": "Parades bus comunal", "tipus_desti": "bus_comunal" }, "geometry": { "type": "Point", "coordinates": [ 1.501981061646697, 42.462654996390178 ] } },
{ "type": "Feature", "properties": { "nom": "Pl. d'Aixirivall (B)", "nom_parada": "Pl. d'Aixirivall (B)", "coverage_role": "display_only", "us": "Parades bus comunal", "tipus_desti": "bus_comunal" }, "geometry": { "type": "Point", "coordinates": [ 1.501647291961343, 42.462533672133333 ] } },
{ "type": "Feature", "properties": { "nom": "Cruïlla de Bessets (A)", "nom_parada": "Cruïlla de Bessets (A)", "coverage_role": "display_only", "us": "Parades bus comunal", "tipus_desti": "bus_comunal" }, "geometry": { "type": "Point", "coordinates": [ 1.498840964637534, 42.461247737394181 ] } },
{ "type": "Feature", "properties": { "nom": "El Bedràs", "nom_parada": "El Bedràs", "coverage_role": "display_only", "us": "Parades bus comunal", "tipus_desti": "bus_comunal" }, "geometry": { "type": "Point", "coordinates": [ 1.500437120897383, 42.461557446995094 ] } },
{ "type": "Feature", "properties": { "nom": "Les Pardines", "nom_parada": "Les Pardines", "coverage_role": "display_only", "us": "Parades bus comunal", "tipus_desti": "bus_comunal" }, "geometry": { "type": "Point", "coordinates": [ 1.500881464585109, 42.461879442596505 ] } },
{ "type": "Feature", "properties": { "nom": "Cruïlla de Bessets (B)", "nom_parada": "Cruïlla de Bessets (B)", "coverage_role": "display_only", "us": "Parades bus comunal", "tipus_desti": "bus_comunal" }, "geometry": { "type": "Point", "coordinates": [ 1.498629926980018, 42.461299952897306 ] } },
{ "type": "Feature", "properties": { "nom": "Font de la Vall (A)", "nom_parada": "Font de la Vall (A)", "coverage_role": "display_only", "us": "Parades bus comunal", "tipus_desti": "bus_comunal" }, "geometry": { "type": "Point", "coordinates": [ 1.499397802023107, 42.462102638275972 ] } },
{ "type": "Feature", "properties": { "nom": "Font de la Vall (B)", "nom_parada": "Font de la Vall (B)", "coverage_role": "display_only", "us": "Parades bus comunal", "tipus_desti": "bus_comunal" }, "geometry": { "type": "Point", "coordinates": [ 1.49951451902964, 42.46201868393787 ] } },
{ "type": "Feature", "properties": { "nom": "La Corruga (A)", "nom_parada": "La Corruga (A)", "coverage_role": "display_only", "us": "Parades bus comunal", "tipus_desti": "bus_comunal" }, "geometry": { "type": "Point", "coordinates": [ 1.497744311097112, 42.461938824933483 ] } },
{ "type": "Feature", "properties": { "nom": "La Corruga (B)", "nom_parada": "La Corruga (B)", "coverage_role": "display_only", "us": "Parades bus comunal", "tipus_desti": "bus_comunal" }, "geometry": { "type": "Point", "coordinates": [ 1.496278693598305, 42.461691057252892 ] } },
{ "type": "Feature", "properties": { "nom": "El Boïgas (A)", "nom_parada": "El Boïgas (A)", "coverage_role": "display_only", "us": "Parades bus comunal", "tipus_desti": "bus_comunal" }, "geometry": { "type": "Point", "coordinates": [ 1.495723519942274, 42.462676240933618 ] } },
{ "type": "Feature", "properties": { "nom": "El Boïgas (B)", "nom_parada": "El Boïgas (B)", "coverage_role": "display_only", "us": "Parades bus comunal", "tipus_desti": "bus_comunal" }, "geometry": { "type": "Point", "coordinates": [ 1.495846379949156, 42.46265064509884 ] } },
{ "type": "Feature", "properties": { "nom": "El Tossal (A)", "nom_parada": "El Tossal (A)", "coverage_role": "display_only", "us": "Parades bus comunal", "tipus_desti": "bus_comunal" }, "geometry": { "type": "Point", "coordinates": [ 1.491775618387571, 42.46062959798477 ] } },
{ "type": "Feature", "properties": { "nom": "El Tossal (B)", "nom_parada": "El Tossal (B)", "coverage_role": "display_only", "us": "Parades bus comunal", "tipus_desti": "bus_comunal" }, "geometry": { "type": "Point", "coordinates": [ 1.491375811448495, 42.460534893396094 ] } },
{ "type": "Feature", "properties": { "nom": "Pleta de Sibós (B)", "nom_parada": "Pleta de Sibós (B)", "coverage_role": "display_only", "us": "Parades bus comunal", "tipus_desti": "bus_comunal" }, "geometry": { "type": "Point", "coordinates": [ 1.493416311396353, 42.462952164032671 ] } },
{ "type": "Feature", "properties": { "nom": "Pleta de Sibós (A)", "nom_parada": "Pleta de Sibós (A)", "coverage_role": "display_only", "us": "Parades bus comunal", "tipus_desti": "bus_comunal" }, "geometry": { "type": "Point", "coordinates": [ 1.493581148572274, 42.463194812546355 ] } },
{ "type": "Feature", "properties": { "nom": "Costa de Nagol (2)", "nom_parada": "Costa de Nagol (2)", "coverage_role": "display_only", "us": "Parades bus comunal", "tipus_desti": "bus_comunal" }, "geometry": { "type": "Point", "coordinates": [ 1.493936994665251, 42.464728834914318 ] } },
{ "type": "Feature", "properties": { "nom": "Poble d'Auvinyà (A)", "nom_parada": "Poble d'Auvinyà (A)", "coverage_role": "display_only", "us": "Parades bus comunal", "tipus_desti": "bus_comunal" }, "geometry": { "type": "Point", "coordinates": [ 1.49097338093584, 42.453841518611632 ] } },
{ "type": "Feature", "properties": { "nom": "Poble d'Auvinyà (B)", "nom_parada": "Poble d'Auvinyà (B)", "coverage_role": "display_only", "us": "Parades bus comunal", "tipus_desti": "bus_comunal" }, "geometry": { "type": "Point", "coordinates": [ 1.490827484677653, 42.453706372603982 ] } },
{ "type": "Feature", "properties": { "nom": "Auvinyà (A)", "nom_parada": "Auvinyà (A)", "coverage_role": "display_only", "us": "Parades bus comunal", "tipus_desti": "bus_comunal" }, "geometry": { "type": "Point", "coordinates": [ 1.493545762329803, 42.451648467487537 ] } },
{ "type": "Feature", "properties": { "nom": "Auvinyà (B)", "nom_parada": "Auvinyà (B)", "coverage_role": "display_only", "us": "Parades bus comunal", "tipus_desti": "bus_comunal" }, "geometry": { "type": "Point", "coordinates": [ 1.493409080572124, 42.451387389972794 ] } },
{ "type": "Feature", "properties": { "nom": "Auvinyà Residencial (A)", "nom_parada": "Auvinyà Residencial (A)", "coverage_role": "display_only", "us": "Parades bus comunal", "tipus_desti": "bus_comunal" }, "geometry": { "type": "Point", "coordinates": [ 1.490925004807738, 42.448864920455335 ] } },
{ "type": "Feature", "properties": { "nom": "Auvinyà Residencial (B)", "nom_parada": "Auvinyà Residencial (B)", "coverage_role": "display_only", "us": "Parades bus comunal", "tipus_desti": "bus_comunal" }, "geometry": { "type": "Point", "coordinates": [ 1.490774501299307, 42.448886420956555 ] } },
{ "type": "Feature", "properties": { "nom": "St. Esteve de Juberri · parada 45", "nom_parada": "St. Esteve de Juberri", "coverage_role": "display_only", "us": "Parades bus comunal", "tipus_desti": "bus_comunal" }, "geometry": { "type": "Point", "coordinates": [ 1.490269623457838, 42.440239955999076 ] } },
{ "type": "Feature", "properties": { "nom": "St. Esteve de Juberri · parada 46", "nom_parada": "St. Esteve de Juberri", "coverage_role": "display_only", "us": "Parades bus comunal", "tipus_desti": "bus_comunal" }, "geometry": { "type": "Point", "coordinates": [ 1.490223550955247, 42.440126310492644 ] } },
{ "type": "Feature", "properties": { "nom": "Carrer de Llinàs (A)", "nom_parada": "Carrer de Llinàs (A)", "coverage_role": "display_only", "us": "Parades bus comunal", "tipus_desti": "bus_comunal" }, "geometry": { "type": "Point", "coordinates": [ 1.491191073509326, 42.438433146021922 ] } },
{ "type": "Feature", "properties": { "nom": "Carrer de Llinàs (B)", "nom_parada": "Carrer de Llinàs (B)", "coverage_role": "display_only", "us": "Parades bus comunal", "tipus_desti": "bus_comunal" }, "geometry": { "type": "Point", "coordinates": [ 1.490991425998141, 42.43843928902227 ] } },
{ "type": "Feature", "properties": { "nom": "Carrer del Bosc (A)", "nom_parada": "Carrer del Bosc (A)", "coverage_role": "display_only", "us": "Parades bus comunal", "tipus_desti": "bus_comunal" }, "geometry": { "type": "Point", "coordinates": [ 1.492723752095338, 42.440122471117299 ] } },
{ "type": "Feature", "properties": { "nom": "Carrer del Bosc (B)", "nom_parada": "Carrer del Bosc (B)", "coverage_role": "display_only", "us": "Parades bus comunal", "tipus_desti": "bus_comunal" }, "geometry": { "type": "Point", "coordinates": [ 1.492591677587936, 42.440100970616115 ] } },
{ "type": "Feature", "properties": { "nom": "Comabella (A)", "nom_parada": "Comabella (A)", "coverage_role": "display_only", "us": "Parades bus comunal", "tipus_desti": "bus_comunal" }, "geometry": { "type": "Point", "coordinates": [ 1.493725061151799, 42.444646790873009 ] } },
{ "type": "Feature", "properties": { "nom": "Comabella (B)", "nom_parada": "Comabella (B)", "coverage_role": "display_only", "us": "Parades bus comunal", "tipus_desti": "bus_comunal" }, "geometry": { "type": "Point", "coordinates": [ 1.493199066747321, 42.444573842743928 ] } },
{ "type": "Feature", "properties": { "nom": "Les Caubelles (B)", "nom_parada": "Les Caubelles (B)", "coverage_role": "display_only", "us": "Parades bus comunal", "tipus_desti": "bus_comunal" }, "geometry": { "type": "Point", "coordinates": [ 1.498149749120463, 42.470008455759427 ] } },
{ "type": "Feature", "properties": { "nom": "Terra Boneta (A)", "nom_parada": "Terra Boneta (A)", "coverage_role": "display_only", "us": "Parades bus comunal", "tipus_desti": "bus_comunal" }, "geometry": { "type": "Point", "coordinates": [ 1.499726832480333, 42.470214054302204 ] } },
{ "type": "Feature", "properties": { "nom": "Terra Boneta (B)", "nom_parada": "Terra Boneta (B)", "coverage_role": "display_only", "us": "Parades bus comunal", "tipus_desti": "bus_comunal" }, "geometry": { "type": "Point", "coordinates": [ 1.500168048680858, 42.470381211100701 ] } }
]
}
