{
"type": "FeatureCollection",
"name": "equipaments",
"crs": { "type": "name", "properties": { "name": "urn:ogc:def:crs:OGC:1.3:CRS84" } },
"features": [
{ "type": "Feature", "properties": { "nom": "Oficina de tursime", "us": "Informacio", "poblacio": "Sant Julià de Lòria", "emplaçament": "Plaça Lauredia", "tipus_desti": "equipament", "nearest_node": 229, "dist_node_m": 2.669182152279379 }, "geometry": { "type": "Point", "coordinates": [ 1.492592689272066, 42.466582233830486 ] } },
{ "type": "Feature", "properties": { "nom": "Escola Andorrana", "us": "Escola", "poblacio": "Sant Julià de Lòria", "emplaçament": null, "tipus_desti": "equipament", "nearest_node": 252, "dist_node_m": 2.3791049752323974 }, "geometry": { "type": "Point", "coordinates": [ 1.493898247438061, 42.464941525701896 ] } },
{ "type": "Feature", "properties": { "nom": "Escola Francesa", "us": "Escola", "poblacio": "Sant Julià de Lòria", "emplaçament": null, "tipus_desti": "equipament", "nearest_node": 180, "dist_node_m": 1.7578491478537994 }, "geometry": { "type": "Point", "coordinates": [ 1.49222108372848, 42.464996085596447 ] } },
{ "type": "Feature", "properties": { "nom": "Universitat d'Andorra", "us": "Universitat", "poblacio": "Sant Julià de Lòria", "emplaçament": null, "tipus_desti": "equipament", "nearest_node": 181, "dist_node_m": 1.2899591915964603 }, "geometry": { "type": "Point", "coordinates": [ 1.490699024056204, 42.465414315430337 ] } },
{ "type": "Feature", "properties": { "nom": "Biblioteca de Sant Julia de Loria", "us": "Biblioteca", "poblacio": "Sant Julià de Lòria", "emplaçament": null, "tipus_desti": "equipament", "nearest_node": 182, "dist_node_m": 1.7608680949378728 }, "geometry": { "type": "Point", "coordinates": [ 1.490505264155856, 42.465176495577204 ] } },
{ "type": "Feature", "properties": { "nom": "Auditori Rocafort", "us": "Auditori", "poblacio": "Sant Julià de Lòria", "emplaçament": null, "tipus_desti": "equipament", "nearest_node": 182, "dist_node_m": 1.7608680949378728 }, "geometry": { "type": "Point", "coordinates": [ 1.490505264155856, 42.465176495577204 ] } },
{ "type": "Feature", "properties": { "nom": "Centre Cultural i de Congressos Lauredia", "us": "Congressos", "poblacio": "Sant Julià de Lòria", "emplaçament": "Plaça de la Germandat, 3-4", "tipus_desti": "equipament", "nearest_node": 182, "dist_node_m": 1.7608680949378728 }, "geometry": { "type": "Point", "coordinates": [ 1.490505264155856, 42.465176495577204 ] } },
{ "type": "Feature", "properties": { "nom": "Oficines del Servei de Circulació", "us": "Oficines administratives", "poblacio": "Sant Julià de Lòria", "emplaçament": "Avda. Francesc Cairat, 28", "tipus_desti": "equipament", "nearest_node": 182, "dist_node_m": 1.7608680949378728 }, "geometry": { "type": "Point", "coordinates": [ 1.490505264155856, 42.465176495577204 ] } },
{ "type": "Feature", "properties": { "nom": "Comu vell de Loria", "us": "Oficina governamental", "poblacio": "Sant Julià de Lòria", "emplaçament": "Avda. Verge de Canòlich, 42", "tipus_desti": "equipament", "nearest_node": 256, "dist_node_m": 2.3805529171940885 }, "geometry": { "type": "Point", "coordinates": [ 1.491178119661565, 42.46472752870875 ] } },
{ "type": "Feature", "properties": { "nom": "Escola Andorrana", "us": "Escola", "poblacio": "Sant Julià de Lòria", "emplaçament": null, "tipus_desti": "equipament", "nearest_node": 249, "dist_node_m": 1.4719756999825855 }, "geometry": { "type": "Point", "coordinates": [ 1.492805498256045, 42.46451889992656 ] } },
{ "type": "Feature", "properties": { "nom": "Sant Julia i Sant Germa de Loria", "us": "Esglesia catolica", "poblacio": "Sant Julià de Lòria", "emplaçament": null, "tipus_desti": "equipament", "nearest_node": 258, "dist_node_m": 2.3811579227179926 }, "geometry": { "type": "Point", "coordinates": [ 1.49087726312048, 42.463772258544545 ] } },
{ "type": "Feature", "properties": { "nom": "Centre Major - Centre de dia", "us": "Centre de dia", "poblacio": "Sant Julià de Lòria", "emplaçament": "Plaça Major,9", "tipus_desti": "equipament", "nearest_node": 171, "dist_node_m": 2.3563326910050599 }, "geometry": { "type": "Point", "coordinates": [ 1.490927982853191, 42.463057591470601 ] } },
{ "type": "Feature", "properties": { "nom": "Centre d'Atencio Primaria", "us": "Sanitari", "poblacio": "Sant Julià de Lòria", "emplaçament": "Plaça Major,9", "tipus_desti": "equipament", "nearest_node": 171, "dist_node_m": 2.3563326910050599 }, "geometry": { "type": "Point", "coordinates": [ 1.490927982853191, 42.463057591470601 ] } },
{ "type": "Feature", "properties": { "nom": "Cementiri vell de Sant Julia de Loria", "us": "Cementiri", "poblacio": "Sant Julià de Lòria", "emplaçament": null, "tipus_desti": "equipament", "nearest_node": 236, "dist_node_m": 2.8867732870701044 }, "geometry": { "type": "Point", "coordinates": [ 1.48963429007093, 42.460459902049777 ] } },
{ "type": "Feature", "properties": { "nom": "AR+I", "us": "Institut", "poblacio": "Sant Julià de Lòria", "emplaçament": "Av. Rocafort, 21-25", "tipus_desti": "equipament", "nearest_node": 207, "dist_node_m": 2.245683468151519 }, "geometry": { "type": "Point", "coordinates": [ 1.492537822356041, 42.468898085030119 ] } },
{ "type": "Feature", "properties": { "nom": "Ministeri d'educacio", "us": "Ministeri d'educacio", "poblacio": "Sant Julià de Lòria", "emplaçament": "Av. Rocafort, 21-24", "tipus_desti": "equipament", "nearest_node": 207, "dist_node_m": 2.245683468151519 }, "geometry": { "type": "Point", "coordinates": [ 1.492537822356041, 42.468898085030119 ] } },
{ "type": "Feature", "properties": { "nom": "Comu de Sant Julia de Loria", "us": "Oficines administratives", "poblacio": "Sant Julià de Lòria", "emplaçament": "Av. Rocafort, 21-23", "tipus_desti": "equipament", "nearest_node": 207, "dist_node_m": 2.245683468151519 }, "geometry": { "type": "Point", "coordinates": [ 1.492537822356041, 42.468898085030119 ] } },
{ "type": "Feature", "properties": { "nom": "Sant Bartomeu", "us": "Esglesia catolica", "poblacio": "Sant Julià de Lòria", "emplaçament": null, "tipus_desti": "equipament", "nearest_node": 228, "dist_node_m": 2.1783750111019242 }, "geometry": { "type": "Point", "coordinates": [ 1.492791835519281, 42.466733371255749 ] } },
{ "type": "Feature", "properties": { "nom": "Universitat Carlemany", "us": "Universitat", "poblacio": "Sant Julià de Lòria", "emplaçament": "Avda. Verge de Canòlich, 51", "tipus_desti": "equipament", "nearest_node": 230, "dist_node_m": 1.9312232596514307 }, "geometry": { "type": "Point", "coordinates": [ 1.491806540065834, 42.465980819077593 ] } },
{ "type": "Feature", "properties": { "nom": "Espai Laurèdia Jove", "us": "Espai jove", "poblacio": "Sant Julià de Lòria", "emplaçament": "Plaça de la Germandat, 1", "tipus_desti": "equipament", "nearest_node": 232, "dist_node_m": 2.8888256591198669 }, "geometry": { "type": "Point", "coordinates": [ 1.490665611359403, 42.464933179918297 ] } },
{ "type": "Feature", "properties": { "nom": "Correos", "us": "Correus", "poblacio": "Sant Julià de Lòria", "emplaçament": "Plaça Major, 17", "tipus_desti": "equipament", "nearest_node": 234, "dist_node_m": 2.3519260825256585 }, "geometry": { "type": "Point", "coordinates": [ 1.490977996242735, 42.463343641991479 ] } },
{ "type": "Feature", "properties": { "nom": "Espai saludable per a la gent gran", "us": "Area d'esports", "poblacio": "Sant Julià de Lòria", "emplaçament": "Ctra. General núm. 1 (CG1)", "tipus_desti": "equipament", "nearest_node": 246, "dist_node_m": 2.0066882892766373 }, "geometry": { "type": "Point", "coordinates": [ 1.492283973756737, 42.47374634701233 ] } },
{ "type": "Feature", "properties": { "nom": "Universitat Europea", "us": "Universitat", "poblacio": "Sant Julià de Lòria", "emplaçament": null, "tipus_desti": "equipament", "nearest_node": 184, "dist_node_m": 1.0813156018274328 }, "geometry": { "type": "Point", "coordinates": [ 1.489976466006734, 42.464372003044602 ] } },
{ "type": "Feature", "properties": { "nom": "Escola Bressol Laurèdia Xics", "us": "Escola bressol Laurèdia Xics", "poblacio": "Sant Julià de Lòria", "emplaçament": "Plaça Major, 2", "tipus_desti": "equipament", "nearest_node": 250, "dist_node_m": 2.3813584008939999 }, "geometry": { "type": "Point", "coordinates": [ 1.491358954420286, 42.462853260163932 ] } },
{ "type": "Feature", "properties": { "nom": "Sala de Vetlles", "us": "Vetlles", "poblacio": "Sant Julià de Lòria", "emplaçament": null, "tipus_desti": "equipament", "nearest_node": 233, "dist_node_m": 2.9877555479673061 }, "geometry": { "type": "Point", "coordinates": [ 1.491329096469825, 42.463418242712841 ] } },
{ "type": "Feature", "properties": { "nom": "Centre Esportiu de Sant Julia de Loria", "us": "Gimnàs", "poblacio": "Sant Julià de Lòria", "emplaçament": null, "tipus_desti": "equipament", "nearest_node": 231, "dist_node_m": 2.4604014614968093 }, "geometry": { "type": "Point", "coordinates": [ 1.492173065456378, 42.465633412026762 ] } }
]
}
