{
"type": "FeatureCollection",
"name": "espais_polygons",
"crs": { "type": "name", "properties": { "name": "urn:ogc:def:crs:OGC:1.3:CRS84" } },
"features": [
{ "type": "Feature", "properties": { "Layer": "_PARCS I ZONES VERDES", "fid_2": 1, "Codi.quart": "BI_04", "nom": "Font de Joans", "us": "Font", "Tipus.POUP": "Turístic i de lleure en el medi natural", "Tipus.propietat": "Propietat comunal", "Classificació": "SNU", "Qualificacio..si.no.": "no", "Qualificació": "SNU", "Població": "Bixessarri", "Emplaçament": "", "Superfície": 595.39822674542665 }, "geometry": { "type": "Polygon", "coordinates": [ [ [ 1.479638389175984, 42.477405440111937 ], [ 1.479687522487865, 42.477531739704794 ], [ 1.479972424008482, 42.477501891902421 ], [ 1.480172247394642, 42.477455246331601 ], [ 1.480077202577414, 42.477315381944244 ], [ 1.479979313177793, 42.477364454191608 ], [ 1.479638389175984, 42.477405440111937 ] ] ] } },
{ "type": "Feature", "properties": { "Layer": "_PARCS I ZONES VERDES", "fid_2": 2, "Codi.quart": "SJ_02", "nom": "Parc Infantil del Prat Gran", "us": "Parc", "Tipus.POUP": "Esportiu i recreatiu", "Tipus.propietat": "Propietari comunal", "Classificació": "SUCS-1", "Qualificacio..si.no.": "no", "Qualificació": "E", "Població": "Sant Julia de Loria", "Emplaçament": "Avda. Verge de Canòlich, 61 - Avda. Rocafort, 10", "Superfície": 2704.190029728823 }, "geometry": { "type": "Polygon", "coordinates": [ [ [ 1.492390293592865, 42.467585768032968 ], [ 1.492718411003522, 42.468180493350509 ], [ 1.492796084048169, 42.468200099214172 ], [ 1.493089453068857, 42.468131162017364 ], [ 1.493118102063713, 42.468057571739038 ], [ 1.492781722086521, 42.467464499037931 ], [ 1.492390293592865, 42.467585768032968 ] ] ] } },
{ "type": "Feature", "properties": { "Layer": "_PARCS I ZONES VERDES", "fid_2": 3, "Codi.quart": "NA_01", "nom": "Parc Infantil de Terra Bogada", "us": "Parc", "Tipus.POUP": "Esportiu i recreatiu", "Tipus.propietat": "Propietat comunal", "Classificació": "SUCS-1", "Qualificacio..si.no.": "no", "Qualificació": "E", "Població": "Nagol", "Emplaçament": "Ctra. de Certers (CS120)", "Superfície": 1652.9478594414686 }, "geometry": { "type": "Polygon", "coordinates": [ [ [ 1.496306412305082, 42.467110979949837 ], [ 1.496364129252759, 42.467174544003406 ], [ 1.497009363787815, 42.46745608815295 ], [ 1.497029174967372, 42.467402569471879 ], [ 1.497085201565196, 42.467366145831967 ], [ 1.497194668313845, 42.467351735418049 ], [ 1.497287554729275, 42.467381480259753 ], [ 1.497323013131555, 42.467345765693878 ], [ 1.496913156794752, 42.467127230847915 ], [ 1.496389929769152, 42.467039375647296 ], [ 1.496306412305082, 42.467110979949837 ] ] ] } },
{ "type": "Feature", "properties": { "Layer": "_PARCS I ZONES VERDES", "fid_2": 4, "Codi.quart": "SJ_12", "nom": "Parc Prat del Senzill", "us": "Parc", "Tipus.POUP": "Esportiu i recreatiu", "Tipus.propietat": "Arrendat en contra", "Classificació": "SUCS-1", "Qualificacio..si.no.": "no", "Qualificació": "UC1", "Població": "Sant Julia de Loria", "Emplaçament": "Pont de Fontaneda", "Superfície": 4757.9232242619619 }, "geometry": { "type": "Polygon", "coordinates": [ [ [ 1.48783714317231, 42.459806601485319 ], [ 1.487824259848465, 42.460088580801354 ], [ 1.487968352742673, 42.46032100509553 ], [ 1.488420566907325, 42.460583934466626 ], [ 1.488782796774062, 42.460751052077477 ], [ 1.489057513349114, 42.460830666862179 ], [ 1.489346328783967, 42.460992610215222 ], [ 1.489414466730013, 42.460940156338019 ], [ 1.489358169923141, 42.460852189307658 ], [ 1.489094556844796, 42.460630955546314 ], [ 1.488845956156511, 42.460466187515429 ], [ 1.488683624112751, 42.460306563063007 ], [ 1.488234952329709, 42.460042041427982 ], [ 1.488056298939965, 42.459992214896658 ], [ 1.48783714317231, 42.459806601485319 ] ] ] } },
{ "type": "Feature", "properties": { "Layer": "_PARCS I ZONES VERDES", "fid_2": 5, "Codi.quart": "SJ_04", "nom": "Plaça del Mallador", "us": "Plaça", "Tipus.POUP": "Civic", "Tipus.propietat": "Propietat comunal", "Classificació": "SUCS-1", "Qualificacio..si.no.": "no", "Qualificació": "C", "Població": "Sant Julia de Loria", "Emplaçament": "Plaça del Mallador", "Superfície": 258.48409252357669 }, "geometry": { "type": "Polygon", "coordinates": [ [ [ 1.490389591247889, 42.463773677452927 ], [ 1.490278232515035, 42.463904916647707 ], [ 1.490697107751764, 42.463914550467052 ], [ 1.490707692611819, 42.463885866324901 ], [ 1.490577173006156, 42.463855468883892 ], [ 1.490389591247889, 42.463773677452927 ] ] ] } },
{ "type": "Feature", "properties": { "Layer": "_PARCS I ZONES VERDES", "fid_2": 6, "Codi.quart": "SJ_03", "nom": "Plaça de la Germandat", "us": "Plaça", "Tipus.POUP": "Civic", "Tipus.propietat": "Propietat comunal ", "Classificació": "SUCS-1", "Qualificacio..si.no.": "no", "Qualificació": "E", "Població": "Sant Julia de Loria", "Emplaçament": "Plaça de la Germandat", "Superfície": 1853.0310999290232 }, "geometry": { "type": "Polygon", "coordinates": [ [ [ 1.490674430164983, 42.46537945302066 ], [ 1.49112372959514, 42.465269136703235 ], [ 1.491016533195363, 42.465141615768019 ], [ 1.490926247006851, 42.464892333328805 ], [ 1.490412982688976, 42.465020333184192 ], [ 1.490539286114333, 42.465299690462473 ], [ 1.490627815655871, 42.465277754443264 ], [ 1.490674430164983, 42.46537945302066 ] ] ] } },
{ "type": "Feature", "properties": { "Layer": "_PARCS I ZONES VERDES", "fid_2": 7, "Codi.quart": "BI_02", "nom": "Parc Infantil Bixessarri", "us": "Parc", "Tipus.POUP": "Esportiu i recreatiu", "Tipus.propietat": "Propietat comunal", "Classificació": "SNU", "Qualificacio..si.no.": "no", "Qualificació": "SNU", "Població": "Bixessarri", "Emplaçament": "Ctra. General núm. 6 (CG6)", "Superfície": 70.399481879547238 }, "geometry": { "type": "Polygon", "coordinates": [ [ [ 1.457843437726899, 42.484276485823528 ], [ 1.45779313980964, 42.484234690918292 ], [ 1.457606738857158, 42.484329205451957 ], [ 1.457701113379994, 42.484318980328716 ], [ 1.457843437726899, 42.484276485823528 ] ] ] } },
{ "type": "Feature", "properties": { "Layer": "_PARCS I ZONES VERDES", "fid_2": 8, "Codi.quart": "BI_01", "nom": "Berenador de Bixessarri", "us": "Area de picnic", "Tipus.POUP": "Turístic i de lleure en el medi natural", "Tipus.propietat": "Propietat comunal ", "Classificació": "SNU", "Qualificacio..si.no.": "no", "Qualificació": "SNU", "Població": "Bixessarri", "Emplaçament": "Ctra. General núm. 6 (CG6)", "Superfície": 10835.802763585001 }, "geometry": { "type": "Polygon", "coordinates": [ [ [ 1.443767187800918, 42.495008713493768 ], [ 1.444092658810833, 42.494405972093652 ], [ 1.444262915836825, 42.493900582161558 ], [ 1.44435808729107, 42.493708162776073 ], [ 1.444534616556502, 42.493456524398681 ], [ 1.44488442645738, 42.493050103829425 ], [ 1.445194786953395, 42.492410136354081 ], [ 1.445421721487701, 42.4921489186912 ], [ 1.445658394617657, 42.491658973390635 ], [ 1.445746242804346, 42.491558103880074 ], [ 1.445953100042377, 42.491395942878782 ], [ 1.446139210812495, 42.49130011539954 ], [ 1.446810065077807, 42.491085119982955 ], [ 1.448265269193928, 42.490744106388931 ], [ 1.448858479301568, 42.490496376416601 ], [ 1.448154877008279, 42.49048629228318 ], [ 1.448019670793916, 42.490518602735797 ], [ 1.447681374520177, 42.490669965180047 ], [ 1.446718926223507, 42.490946325042813 ], [ 1.446433909670354, 42.491050740782342 ], [ 1.445606305298917, 42.491614698671853 ], [ 1.445548107821925, 42.491610271706705 ], [ 1.44549960826692, 42.49163574640464 ], [ 1.445367323536835, 42.491793258146132 ], [ 1.444976383270183, 42.492577412472194 ], [ 1.444918468219069, 42.492794551352063 ], [ 1.444773448526362, 42.493021998046395 ], [ 1.444675459771829, 42.493103551039518 ], [ 1.444384554741243, 42.493258134253466 ], [ 1.444267124425008, 42.493446708417089 ], [ 1.444200431615602, 42.493675220665217 ], [ 1.44409122109752, 42.49394639592591 ], [ 1.44398360880216, 42.494118116528831 ], [ 1.443951334105619, 42.494257416249532 ], [ 1.443842804644472, 42.49447916315259 ], [ 1.44374168513359, 42.494595625848717 ], [ 1.443535203972001, 42.494944050125078 ], [ 1.443767187800918, 42.495008713493768 ] ] ] } },
{ "type": "Feature", "properties": { "Layer": "_PARCS I ZONES VERDES", "fid_2": 9, "Codi.quart": "AI_02", "nom": "Parc Infantil d'Aixirivall", "us": "Parc infantil", "Tipus.POUP": "Esportiu i recreatiu", "Tipus.propietat": "Propietat comunal ", "Classificació": "SUCS-N-6", "Qualificacio..si.no.": "no", "Qualificació": "E", "Població": "Aixirivall", "Emplaçament": "Ctra. de la Rabassa (CS130)", "Superfície": 358.81819324119715 }, "geometry": { "type": "Polygon", "coordinates": [ [ [ 1.501460412973418, 42.462511776051763 ], [ 1.501811716090374, 42.462604771939681 ], [ 1.501868688975246, 42.462593407894012 ], [ 1.50187312563692, 42.462567157911067 ], [ 1.501560998084487, 42.462394412672587 ], [ 1.501470212214908, 42.462466757886425 ], [ 1.501460412973418, 42.462511776051763 ] ] ] } },
{ "type": "Feature", "properties": { "Layer": "_PARCS I ZONES VERDES", "fid_2": 10, "Codi.quart": "SJ_05", "nom": "Plaça de Sant Roc", "us": "Plaça", "Tipus.POUP": "Civic", "Tipus.propietat": "Arrendat en contra", "Classificació": "SUCS-1", "Qualificacio..si.no.": "si", "Qualificació": "P", "Població": "Sant Julia de Loria", "Emplaçament": "Plaça de Sant Roc", "Superfície": 535.53155641034391 }, "geometry": { "type": "Polygon", "coordinates": [ [ [ 1.491128827271799, 42.463976716603959 ], [ 1.491130860993874, 42.464029780131739 ], [ 1.491076284967413, 42.464024763095843 ], [ 1.491056362888501, 42.464158598940067 ], [ 1.491463153263384, 42.464112435498002 ], [ 1.491375259843551, 42.463939484618926 ], [ 1.491128827271799, 42.463976716603959 ] ] ] } },
{ "type": "Feature", "properties": { "Layer": "_PARCS I ZONES VERDES", "fid_2": 11, "Codi.quart": "SJ_06", "nom": "Plaça Major", "us": "Plaça", "Tipus.POUP": "Civic", "Tipus.propietat": "Propietat comunal", "Classificació": "SUCS-1", "Qualificacio..si.no.": "no", "Qualificació": "C", "Població": "Sant Julia de Loria", "Emplaçament": "Plaça Major", "Superfície": 146.61560396361165 }, "geometry": { "type": "Polygon", "coordinates": [ [ [ 1.491014897245004, 42.463266107240237 ], [ 1.491030291058718, 42.46321444789902 ], [ 1.491085436235691, 42.462858921942555 ], [ 1.490996258884127, 42.463044625039807 ], [ 1.491014897245004, 42.463266107240237 ] ] ] } },
{ "type": "Feature", "properties": { "Layer": "_PARCS I ZONES VERDES", "fid_2": 12, "Codi.quart": "SJ_07", "nom": "Plaça del Moli", "us": "Plaça", "Tipus.POUP": "Civic", "Tipus.propietat": "Propietat comunal", "Classificació": "SUCS-1", "Qualificacio..si.no.": "no", "Qualificació": "C", "Població": "Sant Julia de Loria", "Emplaçament": "", "Superfície": 751.06583931625119 }, "geometry": { "type": "Polygon", "coordinates": [ [ [ 1.492899847049599, 42.469882095738896 ], [ 1.492955171938833, 42.469884395512963 ], [ 1.492906750455319, 42.469802147886 ], [ 1.492885173865443, 42.469656324176533 ], [ 1.492875554219111, 42.469233581885987 ], [ 1.492777165197697, 42.469056570153207 ], [ 1.492711180793695, 42.469084914226059 ], [ 1.492732163919151, 42.46926980838559 ], [ 1.492761083216512, 42.469288149145576 ], [ 1.492782176072335, 42.469474008240311 ], [ 1.492762922741736, 42.469527652357563 ], [ 1.492845386073137, 42.469778978439443 ], [ 1.492899847049599, 42.469882095738896 ] ] ] } },
{ "type": "Feature", "properties": { "Layer": "_PARCS I ZONES VERDES", "fid_2": 13, "Codi.quart": "SJ_08", "nom": "Plaça de Calonge Sant Antoni", "us": "Plaça", "Tipus.POUP": "Civic", "Tipus.propietat": "Propietat comunal", "Classificació": "SUCS-1", "Qualificacio..si.no.": "no", "Qualificació": "C", "Població": "Sant Julia de Loria", "Emplaçament": "Plaça de Calonge - Sant Antoni", "Superfície": 440.67171857086942 }, "geometry": { "type": "Polygon", "coordinates": [ [ [ 1.491865431543245, 42.465887846440481 ], [ 1.492159458619504, 42.46574534859738 ], [ 1.492093473027262, 42.465618629549262 ], [ 1.491896411615247, 42.465689293863875 ], [ 1.491844338674374, 42.465670609529369 ], [ 1.491816908486982, 42.465627217886926 ], [ 1.491865431543245, 42.465887846440481 ] ] ] } },
{ "type": "Feature", "properties": { "Layer": "_PARCS I ZONES VERDES", "fid_2": 14, "Codi.quart": "SJ_09", "nom": "Plaça de Lauredia", "us": "Plaça", "Tipus.POUP": "Civic", "Tipus.propietat": "Propietari comunal", "Classificació": "SUCS-1", "Qualificacio..si.no.": "no", "Qualificació": "C", "Població": "Sant Julia de Loria", "Emplaçament": "", "Superfície": 635.08302759964511 }, "geometry": { "type": "Polygon", "coordinates": [ [ [ 1.492502313219541, 42.466903179430325 ], [ 1.492395947870705, 42.466726140879423 ], [ 1.492308937896232, 42.466718546318205 ], [ 1.492140756694912, 42.466891782521259 ], [ 1.492103318726279, 42.467076861470311 ], [ 1.492117030791557, 42.467151205593716 ], [ 1.492207685047248, 42.467137349036769 ], [ 1.492181460490522, 42.467025341309146 ], [ 1.492259238911429, 42.466956848843481 ], [ 1.49235796619724, 42.466902479723871 ], [ 1.492452403975363, 42.466920756829396 ], [ 1.492502313219541, 42.466903179430325 ] ] ] } },
{ "type": "Feature", "properties": { "Layer": "_PARCS I ZONES VERDES", "fid_2": 15, "Codi.quart": "SJ_10", "nom": "Plaça Francesc Cairat", "us": "Plaça", "Tipus.POUP": "Civic", "Tipus.propietat": "Propietat comunal", "Classificació": "SUCS-1", "Qualificacio..si.no.": "no", "Qualificació": "C", "Població": "Sant Julia de Loria", "Emplaçament": "Plaça Francesc Cairat", "Superfície": 285.43017853330821 }, "geometry": { "type": "Polygon", "coordinates": [ [ [ 1.490541569167017, 42.462189817929641 ], [ 1.490746673862115, 42.462125278239526 ], [ 1.490615538538898, 42.46194553552818 ], [ 1.490592518111081, 42.461946278272997 ], [ 1.49050567230952, 42.462147248944028 ], [ 1.490541569167017, 42.462189817929641 ] ] ] } },
{ "type": "Feature", "properties": { "Layer": "_PARCS I ZONES VERDES", "fid_2": 16, "Codi.quart": "SJ_11", "nom": "Plaça del Sola", "us": "Plaça", "Tipus.POUP": "Civic", "Tipus.propietat": "Propietat comunal", "Classificació": "SUCS-1", "Qualificacio..si.no.": "no", "Qualificació": "C", "Població": "Sant Julia de Loria", "Emplaçament": "", "Superfície": 507.82042203625883 }, "geometry": { "type": "Polygon", "coordinates": [ [ [ 1.489883118424683, 42.461159250401124 ], [ 1.489508374558582, 42.461326059373803 ], [ 1.489483993073017, 42.461409879324229 ], [ 1.489767503996026, 42.461349434959686 ], [ 1.490014993808223, 42.46124379995338 ], [ 1.489953610262728, 42.461172972889543 ], [ 1.489883118424683, 42.461159250401124 ] ] ] } },
{ "type": "Feature", "properties": { "Layer": "_PARCS I ZONES VERDES", "fid_2": 17, "Codi.quart": "AI_01", "nom": "Plaça del Tossal", "us": "Plaça", "Tipus.POUP": "Civic", "Tipus.propietat": "Propietat comunal", "Classificació": "SUCS-1", "Qualificacio..si.no.": "no", "Qualificació": "UA1", "Població": "Aixirivall", "Emplaçament": "", "Superfície": 221.29423272487475 }, "geometry": { "type": "Polygon", "coordinates": [ [ [ 1.491774085777141, 42.460527183283673 ], [ 1.491579935566318, 42.460429680824738 ], [ 1.491501769937445, 42.460456439238364 ], [ 1.49152514378565, 42.460515863066185 ], [ 1.491681024804558, 42.460591347233439 ], [ 1.491774085777141, 42.460527183283673 ] ] ] } },
{ "type": "Feature", "properties": { "Layer": "_PARCS I ZONES VERDES", "fid_2": 18, "Codi.quart": "AU_01", "nom": "Berenador de la Font de Comabella", "us": "Parc picnic", "Tipus.POUP": "Turístic i de lleure en el medi natural", "Tipus.propietat": "Propietat comunal ", "Classificació": "SURB-93", "Qualificacio..si.no.": "no", "Qualificació": "SURB-93", "Població": "Juberri", "Emplaçament": "Ctra. de la Rabassa (CS130)", "Superfície": 2438.8919852291001 }, "geometry": { "type": "Polygon", "coordinates": [ [ [ 1.494279939979609, 42.445196733845748 ], [ 1.494549938767568, 42.445038046206221 ], [ 1.494759795465576, 42.444962689125397 ], [ 1.494508665448639, 42.444811569455091 ], [ 1.494313129453081, 42.444736452651917 ], [ 1.493996261598587, 42.444670842653011 ], [ 1.493741482685804, 42.444670008809837 ], [ 1.493727811325062, 42.444728219969136 ], [ 1.494279939979609, 42.445196733845748 ] ] ] } },
{ "type": "Feature", "properties": { "Layer": "_PARCS I ZONES VERDES", "fid_2": 19, "Codi.quart": "AU_02", "nom": "Berenador de la Font de la Ca", "us": "Area de picnic", "Tipus.POUP": "Turístic i de lleure en el medi natural", "Tipus.propietat": "Propietat comunal ", "Classificació": "SNU", "Qualificacio..si.no.": "no", "Qualificació": "SNU", "Població": "Juberri", "Emplaçament": "Ctra. de la Rabassa (CS130)", "Superfície": 10918.260279404116 }, "geometry": { "type": "Polygon", "coordinates": [ [ [ 1.503710626267448, 42.44642200307279 ], [ 1.503908680362851, 42.446503386932783 ], [ 1.50468933607168, 42.446627097174606 ], [ 1.50506838374864, 42.446725959431099 ], [ 1.505513796351666, 42.446964028895856 ], [ 1.505663671081575, 42.446987627246813 ], [ 1.505816630300286, 42.446980953758683 ], [ 1.505878041008065, 42.446851452707179 ], [ 1.505898674262491, 42.446629547477464 ], [ 1.505829207024137, 42.446510752880542 ], [ 1.50563458122109, 42.446296842763836 ], [ 1.505598519752473, 42.446186233670076 ], [ 1.505664777095131, 42.446130427426162 ], [ 1.506111117644703, 42.445956271545235 ], [ 1.505919208699966, 42.445920491928653 ], [ 1.505500865680709, 42.445917362694473 ], [ 1.504966210328343, 42.446000723307201 ], [ 1.504060681159862, 42.446378165656071 ], [ 1.503888745550493, 42.446415508326851 ], [ 1.503710626267448, 42.44642200307279 ] ] ] } },
{ "type": "Feature", "properties": { "Layer": "_PARCS I ZONES VERDES", "fid_2": 20, "Codi.quart": "AU_03", "nom": "Berenador de la Font del Fornell", "us": "Area de picnic", "Tipus.POUP": "Turístic i de lleure en el medi natural", "Tipus.propietat": "Propietat comunal ", "Classificació": "SNU", "Qualificacio..si.no.": "no", "Qualificació": "SNU", "Població": "Juberri", "Emplaçament": "Ctra. de la Rabassa (CS130)", "Superfície": 5141.0120492083952 }, "geometry": { "type": "Polygon", "coordinates": [ [ [ 1.49892827099469, 42.450753734211197 ], [ 1.499481159190573, 42.450685330443527 ], [ 1.500719155883724, 42.45048420849109 ], [ 1.500720150309418, 42.450411726477832 ], [ 1.500329124055539, 42.450294827066649 ], [ 1.499623908972449, 42.450232493693711 ], [ 1.499280741900731, 42.450277539233312 ], [ 1.49908869258972, 42.45041917019153 ], [ 1.498930475924557, 42.450593364423682 ], [ 1.49892827099469, 42.450753734211197 ] ] ] } },
{ "type": "Feature", "properties": { "Layer": "_PARCS I ZONES VERDES", "fid_2": 21, "Codi.quart": "BI_03", "nom": "Berenador de la Solana del Lloser", "us": "Area de picnic", "Tipus.POUP": "Turístic i de lleure en el medi natural", "Tipus.propietat": "Propietat comunal ", "Classificació": "SNU", "Qualificacio..si.no.": "no", "Qualificació": "SNU", "Població": "Canolich", "Emplaçament": "Ctra. de Canòlich (CS600)", "Superfície": 478.48916159180226 }, "geometry": { "type": "Polygon", "coordinates": [ [ [ 1.449160249000622, 42.472625879928231 ], [ 1.44912077608995, 42.472574928562665 ], [ 1.449131203469118, 42.47251665436746 ], [ 1.449237696565083, 42.472483753616103 ], [ 1.449117071490957, 42.472393507434575 ], [ 1.449073436866389, 42.472301879188088 ], [ 1.448925366178619, 42.472324281895183 ], [ 1.448979954955819, 42.472564284753297 ], [ 1.449160249000622, 42.472625879928231 ] ] ] } },
{ "type": "Feature", "properties": { "Layer": "_PARCS I ZONES VERDES", "fid_2": 22, "Codi.quart": "AU_04", "nom": "Berenador de l'oratori de Sant Cristòfol", "us": "Area de picnic", "Tipus.POUP": "Turístic i de lleure en el medi natural", "Tipus.propietat": "Propietat comunal ", "Classificació": "SNU", "Qualificacio..si.no.": "no", "Qualificació": "SNU", "Població": "Juberri", "Emplaçament": "Ctra. de la Rabassa (CS130)", "Superfície": 4869.5609096169937 }, "geometry": { "type": "Polygon", "coordinates": [ [ [ 1.500038064602269, 42.446143476807343 ], [ 1.500251036882734, 42.446222922392849 ], [ 1.500490812854351, 42.446250211579788 ], [ 1.500744896572154, 42.446250263247002 ], [ 1.501053893527837, 42.44621774805033 ], [ 1.501238319577155, 42.446169607677255 ], [ 1.501242755113805, 42.445998885548661 ], [ 1.501187660191701, 42.445894704662145 ], [ 1.501002644316596, 42.44581033257721 ], [ 1.500376696190517, 42.445777861545125 ], [ 1.500033595956602, 42.445809456356841 ], [ 1.499889939973741, 42.445866791044878 ], [ 1.499888290081301, 42.445986938375398 ], [ 1.500038064602269, 42.446143476807343 ] ] ] } },
{ "type": "Feature", "properties": { "Layer": "_PARCS I ZONES VERDES", "fid_2": 23, "Codi.quart": "FO_01", "nom": "Berenador del coll de Jou", "us": "Area de picnic", "Tipus.POUP": "Turístic i de lleure en el medi natural", "Tipus.propietat": "Propietat comunal ", "Classificació": "SNU", "Qualificacio..si.no.": "no", "Qualificació": "SNU", "Població": "Fontaneda", "Emplaçament": "Ctra. de Fontaneda (CS140)", "Superfície": 2105.6035748271242 }, "geometry": { "type": "Polygon", "coordinates": [ [ [ 1.480865777403735, 42.456583026521123 ], [ 1.479915474987661, 42.456571292876347 ], [ 1.479833012772452, 42.456680766203299 ], [ 1.479874275153712, 42.456740515051024 ], [ 1.47996456282709, 42.456770933779076 ], [ 1.480346475098317, 42.457033316004789 ], [ 1.480366363822905, 42.456885186186852 ], [ 1.480401169642926, 42.456830144882858 ], [ 1.480591811822588, 42.456721949432669 ], [ 1.480880907967595, 42.456648034622397 ], [ 1.480901391658218, 42.45662614185715 ], [ 1.480865777403735, 42.456583026521123 ] ] ] } },
{ "type": "Feature", "properties": { "Layer": "_PARCS I ZONES VERDES", "fid_2": 24, "Codi.quart": "AI_03", "nom": "Berenador coll de la Plana", "us": "Area de picnic", "Tipus.POUP": "Turístic i de lleure en el medi natural", "Tipus.propietat": "Propietat comunal ", "Classificació": "SNU", "Qualificacio..si.no.": "no", "Qualificació": "SNU", "Població": "Aixirivall", "Emplaçament": "Ctra. de la Peguera (CS131)", "Superfície": 2127.0380748617463 }, "geometry": { "type": "Polygon", "coordinates": [ [ [ 1.511741108768849, 42.457923952564457 ], [ 1.511874144650924, 42.457841667120341 ], [ 1.511709732737767, 42.45773109428162 ], [ 1.511464900359172, 42.457482851131665 ], [ 1.510969580328594, 42.457269557012332 ], [ 1.510898832181557, 42.457261291073188 ], [ 1.510871832925933, 42.457280440808638 ], [ 1.510895120984334, 42.457400586359732 ], [ 1.510956522022959, 42.457488704485556 ], [ 1.511569429998442, 42.457868655352485 ], [ 1.511741108768849, 42.457923952564457 ] ] ] } },
{ "type": "Feature", "properties": { "Layer": "_PARCS I ZONES VERDES", "fid_2": 26, "Codi.quart": "SJ_13", "nom": "Parc Infantil Camp de Perot", "us": "Parc infantil", "Tipus.POUP": "Esportiu i recreatiu", "Tipus.propietat": "Propietat comunal ", "Classificació": "SUCS-1", "Qualificacio..si.no.": "no", "Qualificació": "OA2", "Població": "Sant Julia de Loria", "Emplaçament": "Camp de Perot", "Superfície": 230.22842668322846 }, "geometry": { "type": "Polygon", "coordinates": [ [ [ 1.49236248252328, 42.463286565383804 ], [ 1.492412100727979, 42.463267029238359 ], [ 1.492274599901712, 42.463154203366159 ], [ 1.492040605852973, 42.462896503773415 ], [ 1.491989011712023, 42.462931662473281 ], [ 1.49236248252328, 42.463286565383804 ] ] ] } },
{ "type": "Feature", "properties": { "Layer": "_PARCS I ZONES VERDES", "fid_2": 27, "Codi.quart": "AI_04", "nom": "Plaça d'Aixirivall", "us": "Plaça", "Tipus.POUP": "Civic", "Tipus.propietat": "Propietat comunal ", "Classificació": "SUCS-N-6", "Qualificacio..si.no.": "no", "Qualificació": "SUCS-N-6", "Població": "Aixirivall", "Emplaçament": "Plaça d'Aixirivall", "Superfície": 179.16720180725679 }, "geometry": { "type": "Polygon", "coordinates": [ [ [ 1.50199284361174, 42.4626616477222 ], [ 1.50192470440826, 42.462710997040134 ], [ 1.501950764698134, 42.462734143341216 ], [ 1.502176241629438, 42.462832319118853 ], [ 1.502248228234183, 42.462830429645059 ], [ 1.50199284361174, 42.4626616477222 ] ] ] } },
{ "type": "Feature", "properties": { "Layer": "_PARCS I ZONES VERDES", "fid_2": 28, "Codi.quart": "SJ_01", "nom": "Plaça Rocacorba", "us": "Plaça", "Tipus.POUP": "Civic", "Tipus.propietat": "Propietat comunal ", "Classificació": "SUCS-1", "Qualificacio..si.no.": "no", "Qualificació": "C", "Població": "Sant Julia de Loria", "Emplaçament": "Plaça Rocacorba", "Superfície": 697.67013760108966 }, "geometry": { "type": "Polygon", "coordinates": [ [ [ 1.492863680167235, 42.470078461281638 ], [ 1.492956393182955, 42.470283560670865 ], [ 1.492997737449262, 42.470467796214344 ], [ 1.493141570803592, 42.470473882394202 ], [ 1.493168749467187, 42.470665935950564 ], [ 1.493206492578457, 42.470662774337995 ], [ 1.493132852538676, 42.47016504225298 ], [ 1.492939374841684, 42.470123168952313 ], [ 1.492911707586205, 42.470065772354509 ], [ 1.492863680167235, 42.470078461281638 ] ] ] } }
]
}
