{
"type": "FeatureCollection",
"name": "espais_entrades",
"crs": { "type": "name", "properties": { "name": "urn:ogc:def:crs:OGC:1.3:CRS84" } },
"features": [
{ "type": "Feature", "properties": { "nom": "Parc Prat del Senzill", "us": "parc_infantil", "parent_ID": null, "access_type": "lliure", "accessible_older": "si", "tipus_desti": "espai_lliure", "nearest_node": 272, "dist_node_m": 0.0 }, "geometry": { "type": "Point", "coordinates": [ 1.488696356696791, 42.460556563619065 ] } },
{ "type": "Feature", "properties": { "nom": "Plaça del Sola", "us": "plaça", "parent_ID": null, "access_type": "lliure", "accessible_older": "si", "tipus_desti": "espai_lliure", "nearest_node": 271, "dist_node_m": 0.0 }, "geometry": { "type": "Point", "coordinates": [ 1.490188299985498, 42.461580807809241 ] } },
{ "type": "Feature", "properties": { "nom": "Plaça Francesc Cairat", "us": "plaça", "parent_ID": null, "access_type": "lliure", "accessible_older": "si", "tipus_desti": "espai_lliure", "nearest_node": 270, "dist_node_m": 0.0 }, "geometry": { "type": "Point", "coordinates": [ 1.490524163141318, 42.462140880764842 ] } },
{ "type": "Feature", "properties": { "nom": "Plaça Major", "us": "plaça", "parent_ID": null, "access_type": "lliure", "accessible_older": "si", "tipus_desti": "espai_lliure", "nearest_node": 206, "dist_node_m": 0.0 }, "geometry": { "type": "Point", "coordinates": [ 1.491014053301921, 42.463228573602223 ] } },
{ "type": "Feature", "properties": { "nom": "Plaça del Mallador", "us": "plaça", "parent_ID": null, "access_type": "lliure", "accessible_older": "si", "tipus_desti": "espai_lliure", "nearest_node": 267, "dist_node_m": 0.0 }, "geometry": { "type": "Point", "coordinates": [ 1.490403092919012, 42.463794850752549 ] } },
{ "type": "Feature", "properties": { "nom": "Plaça de Sant Roc", "us": "plaça", "parent_ID": null, "access_type": "lliure", "accessible_older": "si", "tipus_desti": "espai_lliure", "nearest_node": 266, "dist_node_m": 0.0 }, "geometry": { "type": "Point", "coordinates": [ 1.49127624199545, 42.463990120811083 ] } },
{ "type": "Feature", "properties": { "nom": "Plaça de la Germandat", "us": "plaça", "parent_ID": null, "access_type": "ascensor", "accessible_older": "si", "tipus_desti": "espai_lliure", "nearest_node": 197, "dist_node_m": 0.0 }, "geometry": { "type": "Point", "coordinates": [ 1.490691508653851, 42.465328145253821 ] } },
{ "type": "Feature", "properties": { "nom": "Parc Infantil Camp de Perot", "us": "parc_infantil", "parent_ID": null, "access_type": "lliure", "accessible_older": "si", "tipus_desti": "espai_lliure", "nearest_node": 235, "dist_node_m": 7.9190747290669083 }, "geometry": { "type": "Point", "coordinates": [ 1.492228313542697, 42.463116772259276 ] } },
{ "type": "Feature", "properties": { "nom": "Plaça de Calonge Sant Antoni", "us": "plaça", "parent_ID": null, "access_type": "lliure", "accessible_older": "si", "tipus_desti": "espai_lliure", "nearest_node": 263, "dist_node_m": 0.0 }, "geometry": { "type": "Point", "coordinates": [ 1.491863049608281, 42.465825034487821 ] } },
{ "type": "Feature", "properties": { "nom": "Plaça de Lauredia", "us": "plaça", "parent_ID": null, "access_type": "lliure", "accessible_older": "si", "tipus_desti": "espai_lliure", "nearest_node": 261, "dist_node_m": 0.0 }, "geometry": { "type": "Point", "coordinates": [ 1.492155608298784, 42.46712465538117 ] } },
{ "type": "Feature", "properties": { "nom": "Parc Infantil del Prat Gran", "us": "parc_infantil", "parent_ID": null, "access_type": "escala", "accessible_older": "no", "tipus_desti": "espai_lliure", "nearest_node": 194, "dist_node_m": 0.0 }, "geometry": { "type": "Point", "coordinates": [ 1.492945187220464, 42.46779740319375 ] } },
{ "type": "Feature", "properties": { "nom": "Plaça Rocacorba", "us": "plaça", "parent_ID": null, "access_type": "lliure", "accessible_older": "si", "tipus_desti": "espai_lliure", "nearest_node": 191, "dist_node_m": 0.0 }, "geometry": { "type": "Point", "coordinates": [ 1.493161774581143, 42.470427915761718 ] } },
{ "type": "Feature", "properties": { "nom": "Plaça del Moli", "us": "plaça", "parent_ID": null, "access_type": "lliure", "accessible_older": "si", "tipus_desti": "espai_lliure", "nearest_node": 192, "dist_node_m": 0.0 }, "geometry": { "type": "Point", "coordinates": [ 1.492916061918417, 42.469859590709945 ] } },
{ "type": "Feature", "properties": { "nom": "Plaça Rocacorba", "us": "plaça", "parent_ID": null, "access_type": "escala", "accessible_older": "no", "tipus_desti": "espai_lliure", "nearest_node": 259, "dist_node_m": 0.0 }, "geometry": { "type": "Point", "coordinates": [ 1.492897389803161, 42.470086506221641 ] } },
{ "type": "Feature", "properties": { "nom": "Plaça del Moli", "us": "plaça", "parent_ID": null, "access_type": "lliure", "accessible_older": "si", "tipus_desti": "espai_lliure", "nearest_node": 193, "dist_node_m": 0.0 }, "geometry": { "type": "Point", "coordinates": [ 1.49276571746631, 42.469082430725265 ] } },
{ "type": "Feature", "properties": { "nom": "Parc Infantil del Prat Gran", "us": "parc_infantil", "parent_ID": null, "access_type": "rampa", "accessible_older": "si", "tipus_desti": "espai_lliure", "nearest_node": 260, "dist_node_m": 0.0 }, "geometry": { "type": "Point", "coordinates": [ 1.49272730923829, 42.46814730676433 ] } },
{ "type": "Feature", "properties": { "nom": "Plaça de Lauredia", "us": "plaça", "parent_ID": null, "access_type": "lliure", "accessible_older": "si", "tipus_desti": "espai_lliure", "nearest_node": 262, "dist_node_m": 0.0 }, "geometry": { "type": "Point", "coordinates": [ 1.492339191741116, 42.466731760951589 ] } },
{ "type": "Feature", "properties": { "nom": "Plaça de Lauredia", "us": "plaça", "parent_ID": null, "access_type": "lliure", "accessible_older": "si", "tipus_desti": "espai_lliure", "nearest_node": 195, "dist_node_m": 0.0 }, "geometry": { "type": "Point", "coordinates": [ 1.492474472859908, 42.466878414754639 ] } },
{ "type": "Feature", "properties": { "nom": "Plaça de Calonge Sant Antoni", "us": "plaça", "parent_ID": null, "access_type": "lliure", "accessible_older": "si", "tipus_desti": "espai_lliure", "nearest_node": 264, "dist_node_m": 0.0 }, "geometry": { "type": "Point", "coordinates": [ 1.491836708456538, 42.465678413851379 ] } },
{ "type": "Feature", "properties": { "nom": "Plaça de Calonge Sant Antoni", "us": "plaça", "parent_ID": null, "access_type": "ascensor", "accessible_older": "si", "tipus_desti": "espai_lliure", "nearest_node": 90, "dist_node_m": 0.27840248876845813 }, "geometry": { "type": "Point", "coordinates": [ 1.492116204555384, 42.465674808866453 ] } },
{ "type": "Feature", "properties": { "nom": "Plaça de la Germandat", "us": "plaça", "parent_ID": null, "access_type": "lliure", "accessible_older": "si", "tipus_desti": "espai_lliure", "nearest_node": 196, "dist_node_m": 0.0 }, "geometry": { "type": "Point", "coordinates": [ 1.491046597353278, 42.465221975502416 ] } },
{ "type": "Feature", "properties": { "nom": "Plaça de la Germandat", "us": "plaça", "parent_ID": null, "access_type": "lliure", "accessible_older": "si", "tipus_desti": "espai_lliure", "nearest_node": 131, "dist_node_m": 8.9393189191623819 }, "geometry": { "type": "Point", "coordinates": [ 1.490909618090986, 42.464944763643693 ] } },
{ "type": "Feature", "properties": { "nom": "Plaça Major", "us": "plaça", "parent_ID": null, "access_type": "lliure", "accessible_older": "si", "tipus_desti": "espai_lliure", "nearest_node": 205, "dist_node_m": 0.0 }, "geometry": { "type": "Point", "coordinates": [ 1.491077175428414, 42.462887782083293 ] } },
{ "type": "Feature", "properties": { "nom": "Plaça Major", "us": "plaça", "parent_ID": null, "access_type": "ascensor", "accessible_older": "si", "tipus_desti": "espai_lliure", "nearest_node": 268, "dist_node_m": 0.0 }, "geometry": { "type": "Point", "coordinates": [ 1.490999707539614, 42.463093118017333 ] } },
{ "type": "Feature", "properties": { "nom": "Plaça Francesc Cairat", "us": "plaça", "parent_ID": null, "access_type": "lliure", "accessible_older": "si", "tipus_desti": "espai_lliure", "nearest_node": 269, "dist_node_m": 0.0 }, "geometry": { "type": "Point", "coordinates": [ 1.490709177510769, 42.462099554760151 ] } },
{ "type": "Feature", "properties": { "nom": "Plaça del Sola", "us": "plaça", "parent_ID": null, "access_type": "lliure", "accessible_older": "si", "tipus_desti": "espai_lliure", "nearest_node": 187, "dist_node_m": 23.700105210044665 }, "geometry": { "type": "Point", "coordinates": [ 1.489877774045403, 42.461486956923736 ] } },
{ "type": "Feature", "properties": { "nom": "Plaça del Tossal", "us": "plaça", "parent_ID": null, "access_type": "lliure", "accessible_older": "si", "tipus_desti": "espai_lliure", "nearest_node": 273, "dist_node_m": 0.0 }, "geometry": { "type": "Point", "coordinates": [ 1.491625000269186, 42.460554674293924 ] } },
{ "type": "Feature", "properties": { "nom": "Parc Infantil de Terra Bogada", "us": "parc_infantil", "parent_ID": null, "access_type": "lliure", "accessible_older": "si", "tipus_desti": "espai_lliure", "nearest_node": 265, "dist_node_m": 0.0 }, "geometry": { "type": "Point", "coordinates": [ 1.497026606312613, 42.467335656586918 ] } },
{ "type": "Feature", "properties": { "nom": "Plaça d'Aixirivall", "us": "plaça", "parent_ID": null, "access_type": "lliure", "accessible_older": "si", "tipus_desti": "espai_lliure", "nearest_node": 200, "dist_node_m": 0.0 }, "geometry": { "type": "Point", "coordinates": [ 1.501992243368786, 42.462684316366762 ] } },
{ "type": "Feature", "properties": { "nom": "Parc Infantil d'Aixirivall", "us": "parc_infantil", "parent_ID": null, "access_type": "lliure", "accessible_older": "si", "tipus_desti": "espai_lliure", "nearest_node": 199, "dist_node_m": 0.0 }, "geometry": { "type": "Point", "coordinates": [ 1.501847849853668, 42.462577636833835 ] } }
]
}
